{
  "type": "FeatureCollection",
  "features": [
    {
      "type": "Feature",
      "properties": {
        "district_id": "OR_PURI",
        "district_name": "Puri",
        "state_id": "OR",
        "state_name": "Odisha",
        "alert_level": "RED",
        "alert_hex": "#ef4444",
        "corrected_mm": 245.8,
        "raw_nwp_mm": 178.4,
        "regime": "MONSOON_DEPRESSION",
        "p_heavy": 0.99,
        "p_very_heavy": 0.91,
        "p_extreme": 0.78
      },
      "geometry": {
        "type": "Polygon",
        "coordinates": [
          [[85.60, 19.70], [86.10, 19.70], [86.20, 20.00], [85.70, 20.10], [85.50, 19.85], [85.60, 19.70]]
        ]
      }
    },
    {
      "type": "Feature",
      "properties": {
        "district_id": "KL_WAYANAD",
        "district_name": "Wayanad",
        "state_id": "KL",
        "state_name": "Kerala",
        "alert_level": "RED",
        "alert_hex": "#ef4444",
        "corrected_mm": 228.6,
        "raw_nwp_mm": 162.0,
        "regime": "OROGRAPHIC",
        "p_heavy": 0.98,
        "p_very_heavy": 0.88,
        "p_extreme": 0.72
      },
      "geometry": {
        "type": "Polygon",
        "coordinates": [
          [[75.90, 11.50], [76.35, 11.50], [76.45, 11.90], [76.05, 12.00], [75.80, 11.75], [75.90, 11.50]]
        ]
      }
    },
    {
      "type": "Feature",
      "properties": {
        "district_id": "AS_CACHAR",
        "district_name": "Cachar",
        "state_id": "AS",
        "state_name": "Assam",
        "alert_level": "RED",
        "alert_hex": "#ef4444",
        "corrected_mm": 216.4,
        "raw_nwp_mm": 155.0,
        "regime": "ACTIVE_MONSOON",
        "p_heavy": 0.97,
        "p_very_heavy": 0.85,
        "p_extreme": 0.68
      },
      "geometry": {
        "type": "Polygon",
        "coordinates": [
          [[92.50, 24.50], [93.10, 24.50], [93.20, 25.10], [92.60, 25.15], [92.50, 24.50]]
        ]
      }
    },
    {
      "type": "Feature",
      "properties": {
        "district_id": "GJ_VALSAD",
        "district_name": "Valsad",
        "state_id": "GJ",
        "state_name": "Gujarat",
        "alert_level": "RED",
        "alert_hex": "#ef4444",
        "corrected_mm": 234.0,
        "raw_nwp_mm": 170.2,
        "regime": "COASTAL_CONVECTION",
        "p_heavy": 0.98,
        "p_very_heavy": 0.89,
        "p_extreme": 0.74
      },
      "geometry": {
        "type": "Polygon",
        "coordinates": [
          [[72.75, 20.30], [73.20, 20.30], [73.30, 20.80], [72.80, 20.85], [72.75, 20.30]]
        ]
      }
    },
    {
      "type": "Feature",
      "properties": {
        "district_id": "MH_PUNE",
        "district_name": "Pune",
        "state_id": "MH",
        "state_name": "Maharashtra",
        "alert_level": "ORANGE",
        "alert_hex": "#f97316",
        "corrected_mm": 143.0,
        "raw_nwp_mm": 112.5,
        "regime": "OROGRAPHIC",
        "p_heavy": 0.92,
        "p_very_heavy": 0.76,
        "p_extreme": 0.18
      },
      "geometry": {
        "type": "Polygon",
        "coordinates": [
          [[73.30, 18.20], [74.50, 18.20], [74.70, 19.10], [73.50, 19.20], [73.30, 18.50], [73.30, 18.20]]
        ]
      }
    },
    {
      "type": "Feature",
      "properties": {
        "district_id": "MH_MUMBAI",
        "district_name": "Mumbai Suburban",
        "state_id": "MH",
        "state_name": "Maharashtra",
        "alert_level": "ORANGE",
        "alert_hex": "#f97316",
        "corrected_mm": 178.5,
        "raw_nwp_mm": 135.0,
        "regime": "COASTAL_CONVECTION",
        "p_heavy": 0.95,
        "p_very_heavy": 0.82,
        "p_extreme": 0.38
      },
      "geometry": {
        "type": "Polygon",
        "coordinates": [
          [[72.75, 18.90], [73.00, 18.90], [73.05, 19.30], [72.80, 19.30], [72.75, 18.90]]
        ]
      }
    },
    {
      "type": "Feature",
      "properties": {
        "district_id": "MH_RATNAGIRI",
        "district_name": "Ratnagiri",
        "state_id": "MH",
        "state_name": "Maharashtra",
        "alert_level": "ORANGE",
        "alert_hex": "#f97316",
        "corrected_mm": 182.0,
        "raw_nwp_mm": 140.0,
        "regime": "OROGRAPHIC",
        "p_heavy": 0.96,
        "p_very_heavy": 0.84,
        "p_extreme": 0.41
      },
      "geometry": {
        "type": "Polygon",
        "coordinates": [
          [[73.10, 16.50], [73.70, 16.50], [73.75, 17.50], [73.15, 17.50], [73.10, 16.50]]
        ]
      }
    },
    {
      "type": "Feature",
      "properties": {
        "district_id": "UT_DEHRADUN",
        "district_name": "Dehradun",
        "state_id": "UT",
        "state_name": "Uttarakhand",
        "alert_level": "ORANGE",
        "alert_hex": "#f97316",
        "corrected_mm": 164.0,
        "raw_nwp_mm": 120.0,
        "regime": "WESTERN_DISTURBANCE",
        "p_heavy": 0.93,
        "p_very_heavy": 0.78,
        "p_extreme": 0.32
      },
      "geometry": {
        "type": "Polygon",
        "coordinates": [
          [[77.70, 30.00], [78.30, 30.00], [78.40, 30.60], [77.80, 30.60], [77.70, 30.00]]
        ]
      }
    },
    {
      "type": "Feature",
      "properties": {
        "district_id": "HP_MANDI",
        "district_name": "Mandi",
        "state_id": "HP",
        "state_name": "Himachal Pradesh",
        "alert_level": "ORANGE",
        "alert_hex": "#f97316",
        "corrected_mm": 152.0,
        "raw_nwp_mm": 108.0,
        "regime": "WESTERN_DISTURBANCE",
        "p_heavy": 0.91,
        "p_very_heavy": 0.72,
        "p_extreme": 0.24
      },
      "geometry": {
        "type": "Polygon",
        "coordinates": [
          [[76.60, 31.40], [77.20, 31.40], [77.30, 32.00], [76.70, 32.00], [76.60, 31.40]]
        ]
      }
    },
    {
      "type": "Feature",
      "properties": {
        "district_id": "WB_DARJEELING",
        "district_name": "Darjeeling",
        "state_id": "WB",
        "state_name": "West Bengal",
        "alert_level": "ORANGE",
        "alert_hex": "#f97316",
        "corrected_mm": 158.0,
        "raw_nwp_mm": 118.0,
        "regime": "OROGRAPHIC",
        "p_heavy": 0.94,
        "p_very_heavy": 0.77,
        "p_extreme": 0.28
      },
      "geometry": {
        "type": "Polygon",
        "coordinates": [
          [[88.00, 26.80], [88.50, 26.80], [88.60, 27.25], [88.10, 27.25], [88.00, 26.80]]
        ]
      }
    },
    {
      "type": "Feature",
      "properties": {
        "district_id": "AP_VISAKHAPATNAM",
        "district_name": "Visakhapatnam",
        "state_id": "AP",
        "state_name": "Andhra Pradesh",
        "alert_level": "ORANGE",
        "alert_hex": "#f97316",
        "corrected_mm": 149.0,
        "raw_nwp_mm": 115.0,
        "regime": "MONSOON_DEPRESSION",
        "p_heavy": 0.92,
        "p_very_heavy": 0.74,
        "p_extreme": 0.22
      },
      "geometry": {
        "type": "Polygon",
        "coordinates": [
          [[82.90, 17.40], [83.50, 17.40], [83.60, 18.00], [83.00, 18.00], [82.90, 17.40]]
        ]
      }
    },
    {
      "type": "Feature",
      "properties": {
        "district_id": "KL_ERNAKULAM",
        "district_name": "Ernakulam",
        "state_id": "KL",
        "state_name": "Kerala",
        "alert_level": "ORANGE",
        "alert_hex": "#f97316",
        "corrected_mm": 168.0,
        "raw_nwp_mm": 125.0,
        "regime": "COASTAL_CONVECTION",
        "p_heavy": 0.95,
        "p_very_heavy": 0.81,
        "p_extreme": 0.35
      },
      "geometry": {
        "type": "Polygon",
        "coordinates": [
          [[76.10, 9.75], [76.70, 9.75], [76.80, 10.25], [76.20, 10.25], [76.10, 9.75]]
        ]
      }
    },
    {
      "type": "Feature",
      "properties": {
        "district_id": "BR_PATNA",
        "district_name": "Patna",
        "state_id": "BR",
        "state_name": "Bihar",
        "alert_level": "YELLOW",
        "alert_hex": "#eab308",
        "corrected_mm": 88.5,
        "raw_nwp_mm": 68.0,
        "regime": "ACTIVE_MONSOON",
        "p_heavy": 0.72,
        "p_very_heavy": 0.34,
        "p_extreme": 0.05
      },
      "geometry": {
        "type": "Polygon",
        "coordinates": [
          [[84.70, 25.30], [85.60, 25.30], [85.65, 25.75], [84.75, 25.75], [84.70, 25.30]]
        ]
      }
    },
    {
      "type": "Feature",
      "properties": {
        "district_id": "BR_SUPAUL",
        "district_name": "Supaul",
        "state_id": "BR",
        "state_name": "Bihar",
        "alert_level": "YELLOW",
        "alert_hex": "#eab308",
        "corrected_mm": 98.0,
        "raw_nwp_mm": 76.0,
        "regime": "ACTIVE_MONSOON",
        "p_heavy": 0.81,
        "p_very_heavy": 0.42,
        "p_extreme": 0.08
      },
      "geometry": {
        "type": "Polygon",
        "coordinates": [
          [[86.30, 25.90], [87.00, 25.90], [87.10, 26.50], [86.40, 26.50], [86.30, 25.90]]
        ]
      }
    },
    {
      "type": "Feature",
      "properties": {
        "district_id": "MP_HOSHANGABAD",
        "district_name": "Narmadapuram",
        "state_id": "MP",
        "state_name": "Madhya Pradesh",
        "alert_level": "YELLOW",
        "alert_hex": "#eab308",
        "corrected_mm": 92.0,
        "raw_nwp_mm": 72.0,
        "regime": "MONSOON_DEPRESSION",
        "p_heavy": 0.78,
        "p_very_heavy": 0.38,
        "p_extreme": 0.06
      },
      "geometry": {
        "type": "Polygon",
        "coordinates": [
          [[77.30, 22.40], [78.20, 22.40], [78.30, 23.00], [77.40, 23.00], [77.30, 22.40]]
        ]
      }
    },
    {
      "type": "Feature",
      "properties": {
        "district_id": "MP_JABALPUR",
        "district_name": "Jabalpur",
        "state_id": "MP",
        "state_name": "Madhya Pradesh",
        "alert_level": "YELLOW",
        "alert_hex": "#eab308",
        "corrected_mm": 84.0,
        "raw_nwp_mm": 65.0,
        "regime": "MONSOON_DEPRESSION",
        "p_heavy": 0.74,
        "p_very_heavy": 0.28,
        "p_extreme": 0.04
      },
      "geometry": {
        "type": "Polygon",
        "coordinates": [
          [[79.60, 22.90], [80.40, 22.90], [80.50, 23.50], [79.70, 23.50], [79.60, 22.90]]
        ]
      }
    },
    {
      "type": "Feature",
      "properties": {
        "district_id": "TS_BHADRADRI",
        "district_name": "Bhadradri Kothagudem",
        "state_id": "TS",
        "state_name": "Telangana",
        "alert_level": "YELLOW",
        "alert_hex": "#eab308",
        "corrected_mm": 104.0,
        "raw_nwp_mm": 78.0,
        "regime": "ACTIVE_MONSOON",
        "p_heavy": 0.84,
        "p_very_heavy": 0.46,
        "p_extreme": 0.10
      },
      "geometry": {
        "type": "Polygon",
        "coordinates": [
          [[80.10, 17.20], [81.10, 17.20], [81.20, 18.00], [80.20, 18.00], [80.10, 17.20]]
        ]
      }
    },
    {
      "type": "Feature",
      "properties": {
        "district_id": "TS_HYDERABAD",
        "district_name": "Hyderabad",
        "state_id": "TS",
        "state_name": "Telangana",
        "alert_level": "YELLOW",
        "alert_hex": "#eab308",
        "corrected_mm": 76.0,
        "raw_nwp_mm": 58.0,
        "regime": "ACTIVE_MONSOON",
        "p_heavy": 0.69,
        "p_very_heavy": 0.22,
        "p_extreme": 0.02
      },
      "geometry": {
        "type": "Polygon",
        "coordinates": [
          [[78.30, 17.25], [78.65, 17.25], [78.65, 17.55], [78.30, 17.55], [78.30, 17.25]]
        ]
      }
    },
    {
      "type": "Feature",
      "properties": {
        "district_id": "TN_NILGIRIS",
        "district_name": "Nilgiris",
        "state_id": "TN",
        "state_name": "Tamil Nadu",
        "alert_level": "YELLOW",
        "alert_hex": "#eab308",
        "corrected_mm": 96.0,
        "raw_nwp_mm": 72.0,
        "regime": "OROGRAPHIC",
        "p_heavy": 0.82,
        "p_very_heavy": 0.39,
        "p_extreme": 0.07
      },
      "geometry": {
        "type": "Polygon",
        "coordinates": [
          [[76.40, 11.20], [77.00, 11.20], [77.10, 11.70], [76.50, 11.70], [76.40, 11.20]]
        ]
      }
    },
    {
      "type": "Feature",
      "properties": {
        "district_id": "TN_CHENNAI",
        "district_name": "Chennai",
        "state_id": "TN",
        "state_name": "Tamil Nadu",
        "alert_level": "YELLOW",
        "alert_hex": "#eab308",
        "corrected_mm": 72.0,
        "raw_nwp_mm": 55.0,
        "regime": "COASTAL_CONVECTION",
        "p_heavy": 0.65,
        "p_very_heavy": 0.18,
        "p_extreme": 0.01
      },
      "geometry": {
        "type": "Polygon",
        "coordinates": [
          [[80.15, 12.95], [80.35, 12.95], [80.35, 13.25], [80.15, 13.25], [80.15, 12.95]]
        ]
      }
    },
    {
      "type": "Feature",
      "properties": {
        "district_id": "KA_UDUPI",
        "district_name": "Udupi",
        "state_id": "KA",
        "state_name": "Karnataka",
        "alert_level": "YELLOW",
        "alert_hex": "#eab308",
        "corrected_mm": 110.0,
        "raw_nwp_mm": 85.0,
        "regime": "COASTAL_CONVECTION",
        "p_heavy": 0.88,
        "p_very_heavy": 0.48,
        "p_extreme": 0.12
      },
      "geometry": {
        "type": "Polygon",
        "coordinates": [
          [[74.55, 13.10], [75.10, 13.10], [75.15, 13.80], [74.60, 13.80], [74.55, 13.10]]
        ]
      }
    },
    {
      "type": "Feature",
      "properties": {
        "district_id": "KA_BENGALURU_URBAN",
        "district_name": "Bengaluru Urban",
        "state_id": "KA",
        "state_name": "Karnataka",
        "alert_level": "YELLOW",
        "alert_hex": "#eab308",
        "corrected_mm": 68.0,
        "raw_nwp_mm": 52.0,
        "regime": "ACTIVE_MONSOON",
        "p_heavy": 0.58,
        "p_very_heavy": 0.14,
        "p_extreme": 0.01
      },
      "geometry": {
        "type": "Polygon",
        "coordinates": [
          [[77.40, 12.80], [77.80, 12.80], [77.85, 13.20], [77.45, 13.20], [77.40, 12.80]]
        ]
      }
    },
    {
      "type": "Feature",
      "properties": {
        "district_id": "RJ_JAIPUR",
        "district_name": "Jaipur",
        "state_id": "RJ",
        "state_name": "Rajasthan",
        "alert_level": "GREEN",
        "alert_hex": "#10b981",
        "corrected_mm": 24.5,
        "raw_nwp_mm": 18.0,
        "regime": "BREAK_MONSOON",
        "p_heavy": 0.08,
        "p_very_heavy": 0.01,
        "p_extreme": 0.00
      },
      "geometry": {
        "type": "Polygon",
        "coordinates": [
          [[75.30, 26.50], [76.30, 26.50], [76.40, 27.30], [75.40, 27.30], [75.30, 26.50]]
        ]
      }
    },
    {
      "type": "Feature",
      "properties": {
        "district_id": "RJ_JODHPUR",
        "district_name": "Jodhpur",
        "state_id": "RJ",
        "state_name": "Rajasthan",
        "alert_level": "GREEN",
        "alert_hex": "#10b981",
        "corrected_mm": 11.2,
        "raw_nwp_mm": 8.0,
        "regime": "BREAK_MONSOON",
        "p_heavy": 0.02,
        "p_very_heavy": 0.00,
        "p_extreme": 0.00
      },
      "geometry": {
        "type": "Polygon",
        "coordinates": [
          [[72.40, 25.80], [73.60, 25.80], [73.70, 26.80], [72.50, 26.80], [72.40, 25.80]]
        ]
      }
    },
    {
      "type": "Feature",
      "properties": {
        "district_id": "GJ_AHMEDABAD",
        "district_name": "Ahmedabad",
        "state_id": "GJ",
        "state_name": "Gujarat",
        "alert_level": "GREEN",
        "alert_hex": "#10b981",
        "corrected_mm": 32.0,
        "raw_nwp_mm": 25.0,
        "regime": "BREAK_MONSOON",
        "p_heavy": 0.12,
        "p_very_heavy": 0.02,
        "p_extreme": 0.00
      },
      "geometry": {
        "type": "Polygon",
        "coordinates": [
          [[72.20, 22.70], [72.90, 22.70], [73.00, 23.40], [72.30, 23.40], [72.20, 22.70]]
        ]
      }
    },
    {
      "type": "Feature",
      "properties": {
        "district_id": "UP_LUCKNOW",
        "district_name": "Lucknow",
        "state_id": "UP",
        "state_name": "Uttar Pradesh",
        "alert_level": "GREEN",
        "alert_hex": "#10b981",
        "corrected_mm": 28.0,
        "raw_nwp_mm": 22.0,
        "regime": "BREAK_MONSOON",
        "p_heavy": 0.10,
        "p_very_heavy": 0.01,
        "p_extreme": 0.00
      },
      "geometry": {
        "type": "Polygon",
        "coordinates": [
          [[80.60, 26.60], [81.30, 26.60], [81.35, 27.15], [80.65, 27.15], [80.60, 26.60]]
        ]
      }
    },
    {
      "type": "Feature",
      "properties": {
        "district_id": "UP_VARANASI",
        "district_name": "Varanasi",
        "state_id": "UP",
        "state_name": "Uttar Pradesh",
        "alert_level": "GREEN",
        "alert_hex": "#10b981",
        "corrected_mm": 36.5,
        "raw_nwp_mm": 28.0,
        "regime": "ACTIVE_MONSOON",
        "p_heavy": 0.15,
        "p_very_heavy": 0.02,
        "p_extreme": 0.00
      },
      "geometry": {
        "type": "Polygon",
        "coordinates": [
          [[82.70, 25.15], [83.25, 25.15], [83.30, 25.55], [82.75, 25.55], [82.70, 25.15]]
        ]
      }
    },
    {
      "type": "Feature",
      "properties": {
        "district_id": "DL_NEW_DELHI",
        "district_name": "New Delhi",
        "state_id": "DL",
        "state_name": "Delhi",
        "alert_level": "GREEN",
        "alert_hex": "#10b981",
        "corrected_mm": 21.0,
        "raw_nwp_mm": 15.0,
        "regime": "BREAK_MONSOON",
        "p_heavy": 0.05,
        "p_very_heavy": 0.00,
        "p_extreme": 0.00
      },
      "geometry": {
        "type": "Polygon",
        "coordinates": [
          [[77.05, 28.45], [77.35, 28.45], [77.35, 28.75], [77.05, 28.75], [77.05, 28.45]]
        ]
      }
    },
    {
      "type": "Feature",
      "properties": {
        "district_id": "PB_LUDHIANA",
        "district_name": "Ludhiana",
        "state_id": "PB",
        "state_name": "Punjab",
        "alert_level": "GREEN",
        "alert_hex": "#10b981",
        "corrected_mm": 16.5,
        "raw_nwp_mm": 12.0,
        "regime": "BREAK_MONSOON",
        "p_heavy": 0.03,
        "p_very_heavy": 0.00,
        "p_extreme": 0.00
      },
      "geometry": {
        "type": "Polygon",
        "coordinates": [
          [[75.50, 30.65], [76.25, 30.65], [76.30, 31.10], [75.55, 31.10], [75.50, 30.65]]
        ]
      }
    },
    {
      "type": "Feature",
      "properties": {
        "district_id": "HR_GURUGRAM",
        "district_name": "Gurugram",
        "state_id": "HR",
        "state_name": "Haryana",
        "alert_level": "GREEN",
        "alert_hex": "#10b981",
        "corrected_mm": 19.0,
        "raw_nwp_mm": 14.0,
        "regime": "BREAK_MONSOON",
        "p_heavy": 0.04,
        "p_very_heavy": 0.00,
        "p_extreme": 0.00
      },
      "geometry": {
        "type": "Polygon",
        "coordinates": [
          [[76.80, 28.25], [77.20, 28.25], [77.25, 28.60], [76.85, 28.60], [76.80, 28.25]]
        ]
      }
    },
    {
      "type": "Feature",
      "properties": {
        "district_id": "JH_RANCHI",
        "district_name": "Ranchi",
        "state_id": "JH",
        "state_name": "Jharkhand",
        "alert_level": "YELLOW",
        "alert_hex": "#eab308",
        "corrected_mm": 82.0,
        "raw_nwp_mm": 64.0,
        "regime": "MONSOON_DEPRESSION",
        "p_heavy": 0.72,
        "p_very_heavy": 0.26,
        "p_extreme": 0.03
      },
      "geometry": {
        "type": "Polygon",
        "coordinates": [
          [[85.00, 23.00], [85.70, 23.00], [85.80, 23.70], [85.10, 23.70], [85.00, 23.00]]
        ]
      }
    },
    {
      "type": "Feature",
      "properties": {
        "district_id": "CT_RAIPUR",
        "district_name": "Raipur",
        "state_id": "CT",
        "state_name": "Chhattisgarh",
        "alert_level": "YELLOW",
        "alert_hex": "#eab308",
        "corrected_mm": 106.0,
        "raw_nwp_mm": 80.0,
        "regime": "MONSOON_DEPRESSION",
        "p_heavy": 0.86,
        "p_very_heavy": 0.48,
        "p_extreme": 0.11
      },
      "geometry": {
        "type": "Polygon",
        "coordinates": [
          [[81.30, 20.80], [82.10, 20.80], [82.20, 21.60], [81.40, 21.60], [81.30, 20.80]]
        ]
      }
    }
  ]
}
