{
  "type": "FeatureCollection",
  "features": [
    {
      "type": "Feature",
      "properties": { "name": "Ganga", "basin": "Ganga Basin", "category": "Major" },
      "geometry": {
        "type": "LineString",
        "coordinates": [
          [78.50, 30.10], [80.00, 28.00], [81.80, 25.50], [85.10, 25.60], [88.20, 24.50], [88.40, 22.50]
        ]
      }
    },
    {
      "type": "Feature",
      "properties": { "name": "Brahmaputra", "basin": "Brahmaputra Basin", "category": "Major" },
      "geometry": {
        "type": "LineString",
        "coordinates": [
          [95.50, 28.20], [93.00, 26.50], [91.70, 26.20], [89.80, 25.50]
        ]
      }
    },
    {
      "type": "Feature",
      "properties": { "name": "Godavari", "basin": "Godavari Basin", "category": "Major" },
      "geometry": {
        "type": "LineString",
        "coordinates": [
          [73.50, 20.00], [76.00, 19.20], [79.00, 18.80], [81.50, 17.00], [82.20, 16.70]
        ]
      }
    },
    {
      "type": "Feature",
      "properties": { "name": "Krishna", "basin": "Krishna Basin", "category": "Major" },
      "geometry": {
        "type": "LineString",
        "coordinates": [
          [73.70, 17.90], [75.50, 16.50], [78.00, 16.00], [80.50, 15.80]
        ]
      }
    },
    {
      "type": "Feature",
      "properties": { "name": "Mahanadi", "basin": "Mahanadi Basin", "category": "Major" },
      "geometry": {
        "type": "LineString",
        "coordinates": [
          [81.90, 21.00], [83.80, 21.50], [85.80, 20.40], [86.70, 20.30]
        ]
      }
    },
    {
      "type": "Feature",
      "properties": { "name": "Narmada", "basin": "Narmada Basin", "category": "Major" },
      "geometry": {
        "type": "LineString",
        "coordinates": [
          [81.70, 22.70], [79.00, 22.80], [76.00, 22.20], [72.80, 21.60]
        ]
      }
    },
    {
      "type": "Feature",
      "properties": { "name": "Tapi", "basin": "Tapi Basin", "category": "Major" },
      "geometry": {
        "type": "LineString",
        "coordinates": [
          [78.20, 21.80], [75.50, 21.30], [72.80, 21.20]
        ]
      }
    },
    {
      "type": "Feature",
      "properties": { "name": "Cauvery", "basin": "Cauvery Basin", "category": "Major" },
      "geometry": {
        "type": "LineString",
        "coordinates": [
          [75.70, 12.40], [77.50, 12.10], [78.80, 11.20], [79.80, 11.10]
        ]
      }
    }
  ]
}
